[
    {
        "Altitude(m)": 554256.0699476805,
        "Argument of Periapsis(deg)": 0.0,
        "Eccentricity": 0.0,
        "Inclination(deg)": 53.0,
        "Latitude(deg)": -0.07942319230352561,
        "Longitude(deg)": -49.909822285953986,
        "Mean Anomaly(deg)": -180.0,
        "RAAN(deg)": 229.99999999999997,
        "Satellite Name": "Starlink Shell 1 1023",
        "Satellite Number": 1023,
        "Semi-Major Axis(m)": 6931778.249405717,
        "Time(s)": 0
    },
    {
        "Altitude(m)": 554323.2817368701,
        "Argument of Periapsis(deg)": 0.00034857847951123687,
        "Eccentricity": 0.0,
        "Inclination(deg)": 53.0,
        "Latitude(deg)": -0.5833505037369132,
        "Longitude(deg)": -49.57444446191922,
        "Mean Anomaly(deg)": -179.37316879644328,
        "RAAN(deg)": 229.99948122992248,
        "Satellite Name": "Starlink Shell 1 1023",
        "Satellite Number": 1023,
        "Semi-Major Axis(m)": 6931778.249405717,
        "Time(s)": 10
    },
    {
        "Altitude(m)": 554393.2795336806,
        "Argument of Periapsis(deg)": 0.0006971569590224737,
        "Eccentricity": 0.0,
        "Inclination(deg)": 53.0,
        "Latitude(deg)": -1.0872417510356847,
        "Longitude(deg)": -49.23900697827309,
        "Mean Anomaly(deg)": -178.74633759288656,
        "RAAN(deg)": 229.99896245984507,
        "Satellite Name": "Starlink Shell 1 1023",
        "Satellite Number": 1023,
        "Semi-Major Axis(m)": 6931778.249405717,
        "Time(s)": 20
    },
    {
        "Altitude(m)": 554466.0531021627,
        "Argument of Periapsis(deg)": 0.0010457354385337105,
        "Eccentricity": 0.0,
        "Inclination(deg)": 53.0,
        "Latitude(deg)": -1.591074032017629,
        "Longitude(deg)": -48.903452286469204,
        "Mean Anomaly(deg)": -178.11950638932984,
        "RAAN(deg)": 229.99844368976758,
        "Satellite Name": "Starlink Shell 1 1023",
        "Satellite Number": 1023,
        "Semi-Major Axis(m)": 6931778.249405717,
        "Time(s)": 30
    },
    {
        "Altitude(m)": 554541.5908556279,
        "Argument of Periapsis(deg)": 0.0013943139180449475,
        "Eccentricity": 0.0,
        "Inclination(deg)": 53.0,
        "Latitude(deg)": -2.0948244230808677,
        "Longitude(deg)": -48.56772228492412,
        "Mean Anomaly(deg)": -177.49267518577315,
        "RAAN(deg)": 229.9979249196901,
        "Satellite Name": "Starlink Shell 1 1023",
        "Satellite Number": 1023,
        "Semi-Major Axis(m)": 6931778.249405717,
        "Time(s)": 40
    },
    {
        "Altitude(m)": 554619.879859676,
        "Argument of Periapsis(deg)": 0.0017428923975561844,
        "Eccentricity": 0.0,
        "Inclination(deg)": 53.0,
        "Latitude(deg)": -2.598469967494583,
        "Longitude(deg)": -48.23175930236326,
        "Mean Anomaly(deg)": -176.86584398221643,
        "RAAN(deg)": 229.99740614961266,
        "Satellite Name": "Starlink Shell 1 1023",
        "Satellite Number": 1023,
        "Semi-Major Axis(m)": 6931778.249405717,
        "Time(s)": 50
    },
    {
        "Altitude(m)": 554700.9058358979,
        "Argument of Periapsis(deg)": 0.002091470877067421,
        "Eccentricity": 0.0,
        "Inclination(deg)": 53.0,
        "Latitude(deg)": -3.1019876636552577,
        "Longitude(deg)": -47.89550556827468,
        "Mean Anomaly(deg)": -176.23901277865968,
        "RAAN(deg)": 229.99688737953517,
        "Satellite Name": "Starlink Shell 1 1023",
        "Satellite Number": 1023,
        "Semi-Major Axis(m)": 6931778.249405717,
        "Time(s)": 60
    },
    {
        "Altitude(m)": 554784.6531662617,
        "Argument of Periapsis(deg)": 0.0024400493565786582,
        "Eccentricity": 0.0,
        "Inclination(deg)": 53.0,
        "Latitude(deg)": -3.605354453298244,
        "Longitude(deg)": -47.558902683336505,
        "Mean Anomaly(deg)": -175.61218157510302,
        "RAAN(deg)": 229.99636860945768,
        "Satellite Name": "Starlink Shell 1 1023",
        "Satellite Number": 1023,
        "Semi-Major Axis(m)": 6931778.249405717,
        "Time(s)": 70
    },
    {
        "Altitude(m)": 554871.1048981363,
        "Argument of Periapsis(deg)": 0.002788627836089895,
        "Eccentricity": 0.0,
        "Inclination(deg)": 53.0,
        "Latitude(deg)": -4.10854720965562,
        "Longitude(deg)": -47.22189260268431,
        "Mean Anomaly(deg)": -174.98535037154628,
        "RAAN(deg)": 229.9958498393802,
        "Satellite Name": "Starlink Shell 1 1023",
        "Satellite Number": 1023,
        "Semi-Major Axis(m)": 6931778.249405717,
        "Time(s)": 80
    },
    {
        "Altitude(m)": 554960.2427500292,
        "Argument of Periapsis(deg)": 0.0031372063156011316,
        "Eccentricity": 0.0,
        "Inclination(deg)": 53.0,
        "Latitude(deg)": -4.611542725544636,
        "Longitude(deg)": -46.88441710626623,
        "Mean Anomaly(deg)": -174.35851916798956,
        "RAAN(deg)": 229.99533106930272,
        "Satellite Name": "Starlink Shell 1 1023",
        "Satellite Number": 1023,
        "Semi-Major Axis(m)": 6931778.249405717,
        "Time(s)": 90
    },
    {
        "Altitude(m)": 555052.0471179484,
        "Argument of Periapsis(deg)": 0.0034857847951123688,
        "Eccentricity": 0.0,
        "Inclination(deg)": 53.0,
        "Latitude(deg)": -5.114317701378522,
        "Longitude(deg)": -46.546417269149245,
        "Mean Anomaly(deg)": -173.73168796443284,
        "RAAN(deg)": 229.99481229922526,
        "Satellite Name": "Starlink Shell 1 1023",
        "Satellite Number": 1023,
        "Semi-Major Axis(m)": 6931778.249405717,
        "Time(s)": 100
    },
    {
        "Altitude(m)": 555146.4970824488,
        "Argument of Periapsis(deg)": 0.003834363274623606,
        "Eccentricity": 0.0,
        "Inclination(deg)": 53.0,
        "Latitude(deg)": -5.61684873308878,
        "Longitude(deg)": -46.20783444464745,
        "Mean Anomaly(deg)": -173.10485676087612,
        "RAAN(deg)": 229.9942935291478,
        "Satellite Name": "Starlink Shell 1 1023",
        "Satellite Number": 1023,
        "Semi-Major Axis(m)": 6931778.249405717,
        "Time(s)": 110
    },
    {
        "Altitude(m)": 555243.5704163444,
        "Argument of Periapsis(deg)": 0.004182941754134842,
        "Eccentricity": 0.0,
        "Inclination(deg)": 53.0,
        "Latitude(deg)": -6.119112299944617,
        "Longitude(deg)": -45.86860973451745,
        "Mean Anomaly(deg)": -172.47802555731946,
        "RAAN(deg)": 229.9937747590703,
        "Satellite Name": "Starlink Shell 1 1023",
        "Satellite Number": 1023,
        "Semi-Major Axis(m)": 6931778.249405717,
        "Time(s)": 120
    },
    {
        "Altitude(m)": 555343.2435930291,
        "Argument of Periapsis(deg)": 0.004531520233646079,
        "Eccentricity": 0.0,
        "Inclination(deg)": 53.0,
        "Latitude(deg)": -6.621084752259961,
        "Longitude(deg)": -45.5286834590888,
        "Mean Anomaly(deg)": -171.8511943537627,
        "RAAN(deg)": 229.99325598899281,
        "Satellite Name": "Starlink Shell 1 1023",
        "Satellite Number": 1023,
        "Semi-Major Axis(m)": 6931778.249405717,
        "Time(s)": 130
    },
    {
        "Altitude(m)": 555445.4917955145,
        "Argument of Periapsis(deg)": 0.0048800987131573164,
        "Eccentricity": 0.0,
        "Inclination(deg)": 53.0,
        "Latitude(deg)": -7.122742298977416,
        "Longitude(deg)": -45.18799614019964,
        "Mean Anomaly(deg)": -171.224363150206,
        "RAAN(deg)": 229.9927372189154,
        "Satellite Name": "Starlink Shell 1 1023",
        "Satellite Number": 1023,
        "Semi-Major Axis(m)": 6931778.249405717,
        "Time(s)": 140
    },
    {
        "Altitude(m)": 555550.2889260481,
        "Argument of Periapsis(deg)": 0.005228677192668553,
        "Eccentricity": 0.0,
        "Inclination(deg)": 53.0,
        "Latitude(deg)": -7.624060995115375,
        "Longitude(deg)": -44.84648797118443,
        "Mean Anomaly(deg)": -170.59753194664927,
        "RAAN(deg)": 229.99221844883792,
        "Satellite Name": "Starlink Shell 1 1023",
        "Satellite Number": 1023,
        "Semi-Major Axis(m)": 6931778.249405717,
        "Time(s)": 150
    },
    {
        "Altitude(m)": 555657.6076164134,
        "Argument of Periapsis(deg)": 0.00557725567217979,
        "Eccentricity": 0.0,
        "Inclination(deg)": 53.0,
        "Latitude(deg)": -8.125016729067019,
        "Longitude(deg)": -44.50409828678464,
        "Mean Anomaly(deg)": -169.97070074309258,
        "RAAN(deg)": 229.99169967876043,
        "Satellite Name": "Starlink Shell 1 1023",
        "Satellite Number": 1023,
        "Semi-Major Axis(m)": 6931778.249405717,
        "Time(s)": 160
    },
    {
        "Altitude(m)": 555767.4192388506,
        "Argument of Periapsis(deg)": 0.0059258341516910265,
        "Eccentricity": 0.0,
        "Inclination(deg)": 53.0,
        "Latitude(deg)": -8.625585209742388,
        "Longitude(deg)": -44.16076654585297,
        "Mean Anomaly(deg)": -169.34386953953586,
        "RAAN(deg)": 229.99118090868296,
        "Satellite Name": "Starlink Shell 1 1023",
        "Satellite Number": 1023,
        "Semi-Major Axis(m)": 6931778.249405717,
        "Time(s)": 170
    },
    {
        "Altitude(m)": 555879.6939175966,
        "Argument of Periapsis(deg)": 0.006274412631202263,
        "Eccentricity": 0.0,
        "Inclination(deg)": 53.0,
        "Latitude(deg)": -9.125741953537474,
        "Longitude(deg)": -43.816431801101444,
        "Mean Anomaly(deg)": -168.7170383359791,
        "RAAN(deg)": 229.9906621386055,
        "Satellite Name": "Starlink Shell 1 1023",
        "Satellite Number": 1023,
        "Semi-Major Axis(m)": 6931778.249405717,
        "Time(s)": 180
    }
]